STARLINK-31113          
1 58668U 23211B   26068.07198492 -.00001568  00000+0 -47465-4 0  9995
2 58668  43.0030  88.4648 0001008 277.8231  82.2506 15.27578061122372
LUR-1                   
1 60506U 24149AQ  26068.79566301  .00009121  00000+0  32985-3 0  9998
2 60506  97.3790 148.4255 0002777 309.1571  50.9421 15.28658648 86785
